CZ-2C R/B               
1 28480U 04046B   25334.05684236  .00000242  00000+0  10445-3 0  9991
2 28480  98.1978 250.2238 0140766  89.5094 272.2215 14.26931980 94295
ARIANE 5 R/B            
1 28499U 04049H   25334.05228900  .00001086  00000+0  12699-3 0  9996
2 28499  98.2517 133.8792 0083709 314.6169  44.8237 14.84966678131008
CZ-2D R/B               
1 28738U 05024B   25334.02609138  .00027896  00000+0  45923-3 0  9992
2 28738  97.3638 341.1496 0007362  44.8420 315.3426 15.52282906124285
ALOS (DAICHI)           
1 28931U 06002A   25333.82580274  .00001571  00000+0  27373-3 0  9991
2 28931  98.1074 285.4062 0000712  93.4291 266.6996 14.69422870 58818
H-2A R/B                
1 28932U 06002B   25334.09884367  .00011552  00000+0  61413-3 0  9995
2 28932  98.2306 107.8190 0054422 219.3045 140.4229 15.14172109 79358
RESURS-DK 1             
1 29228U 06021A   25333.93075228  .00003665  00000+0  21876-3 0  9990
2 29228  69.9317 134.9359 0007724 267.8424  92.1857 15.12044675 72441
CZ-4B R/B               
1 29507U 06046C   25334.09423407  .00005537  00000+0  29072-3 0  9997
2 29507  97.5758  14.2673 0032609 251.7319 108.0364 15.15674304 44957
CZ-2C R/B               
1 31114U 07010B   25334.03719941  .00000181  00000+0  10257-3 0  9996
2 31114  98.3970  87.3276 0058312 223.1430 136.5171 14.20201259965577
COSMO-SKYMED 1          
1 31598U 07023A   25334.14408617  .00005068  00000+0  46140-3 0  9992
2 31598  97.8850 159.4616 0001586  85.9034 274.2367 14.95622459    26
COSMOS 2428             
1 31792U 07029A   25333.92394036 -.00000067  00000+0 -10085-4 0  9994
2 31792  70.9375  52.7869 0002969  44.1395 315.9962 14.12886521950001
SL-16 R/B               
1 31793U 07029B   25334.14976265 -.00000144  00000+0 -49669-4 0  9996
2 31793  70.9773  21.6232 0002447 266.0959 113.6990 14.14816809951295
KORONAS-FOTON           
1 33504U 09003A   25334.22177071  .00014403  00000+0  34997-3 0  9997
2 33504  82.4328  19.0723 0012419 149.0323 211.1658 15.40777837930415
CZ-2C R/B               
1 37731U 11030B   25333.89096103  .00002110  00000+0  27417-3 0  9995
2 37731  97.8391 288.2842 0051957 316.5483 105.9117 14.80831068775328
H-2A R/B                
1 38341U 12025E   25334.11855704  .00003537  00000+0  32935-3 0  9999
2 38341  98.4578 288.3785 0043816 279.1087  80.5175 14.94316147733345
SHIJIAN-16 (SJ-16)      
1 39358U 13057A   25334.19691722  .00002292  00000+0  22870-3 0  9994
2 39358  74.9741  13.3865 0017221 349.4895  10.5930 14.91935626656666
SL-4 R/B                
1 39679U 14021B   25334.06252286  .00015434  00000+0  37062-3 0  9997
2 39679  51.6067 102.1827 0102924 100.6207 260.6387 15.36184940640942
ALOS-2                  
1 39766U 14029A   25334.23091727  .00002352  00000+0  32159-3 0  9999
2 39766  97.9231  69.2549 0001364  99.2796 260.8570 14.79497391622164
YAOGAN-29               
1 41038U 15069A   25334.20127059  .00000580  00000+0  78350-4 0  9999
2 41038  98.0231 357.3321 0001003  14.7249 345.3994 14.82860456541131
ASTRO-H (HITOMI)        
1 41337U 16012A   25334.12472351  .00003858  00000+0  23073-3 0  9991
2 41337  31.0001 278.6907 0009514  50.2735 309.8740 15.09227909537173
HXMT (HUIYAN)           
1 42758U 17034A   25334.14193171  .00006125  00000+0  32004-3 0  9990
2 42758  43.0135 209.5297 0033372 323.4892  36.3681 15.16084657467420
CZ-2C R/B               
1 43521U 18054D   25334.10128046  .00105169  00000+0  78979-3 0  9996
2 43521  35.1344 266.4071 0018813  11.6255 348.4909 15.71034090413065
SAOCOM 1A               
1 43641U 18076A   25334.18245753  .00000599  00000+0  81765-4 0  9995
2 43641  97.8848 158.7873 0001573  87.7912 272.3481 14.82155388386620
H-2A R/B                
1 43682U 18084L   25334.12801609  .00021211  00000+0  58567-3 0  9998
2 43682  98.8788 165.5996 0028315   9.6852 350.4927 15.36709914390460
SAOCOM 1B               
1 46265U 20059A   25334.14617897  .00000601  00000+0  81965-4 0  9998
2 46265  97.8844 157.8528 0001365  90.4354 269.7016 14.82164136284002
CSS (TIANHE)            
1 48274U 21035A   25334.02890669  .00015274  00000+0  19848-3 0  9994
2 48274  41.4664  93.8273 0010548 296.7177  63.2581 15.58412090262045
COSMOS 2550             
1 48865U 21056A   25333.81495336 -.00000143  00000+0  14678-5 0  9999
2 48865  67.1430 343.0291 0008394 269.4513  90.5680 15.33825458248141
CZ-2C R/B               
1 52794U 22058K   25333.57448267  .00029335  00000+0  54250-3 0  9993
2 52794  50.1897 110.6410 0046933 144.1572 216.2560 15.47538093194596
CZ-2C R/B               
1 54039U 22132E   25333.92291627  .00035316  00000+0  54644-3 0  9998
2 54039  97.2951 329.8882 0024001  98.7767 261.6206 15.53649627174842
GSLV R/B                
1 54149U 22138AN  25334.08042727  .00002794  00000+0  24531-3 0  9995
2 54149  87.3842 199.7122 0022834 147.7319 212.5315 14.96028145169037
XRISM                   
1 57800U 23137A   25334.01240648  .00006030  00000+0  35466-3 0  9993
2 57800  31.0007 207.7086 0007597 116.3315 243.8104 15.10160844122705
ACS3                    
1 59588U 24077B   25333.89483715  .00026887  00000+0  23394-1 0  9998
2 59588  97.2799 292.3646 0076075   3.9171 356.2570 13.84519632 80365
